IRIDIUM 57              
1 25273U 98019B   24164.89351550  .00000652  00000+0  22101-3 0  9990
2 25273  86.3947 299.9200 0002105  92.9536 267.1901 14.35245404371808
IRIDIUM 69              
1 25319U 98026A   24164.79143397  .00000757  00000+0  23413-3 0  9999
2 25319  86.3983 251.2573 0003819 128.8828 231.2712 14.40034442369880
IRIDIUM 73              
1 25344U 98032C   24164.67942189  .00000774  00000+0  19230-3 0  9998
2 25344  86.4447 203.5206 0002626 104.8716 255.2780 14.50573286376976
IRIDIUM 82              
1 25467U 98051A   24164.83494451  .00014805  00000+0  74942-3 0  9998
2 25467  86.3740 287.8367 0125959 236.2314 122.6875 15.10117178367837
IRIDIUM 2               
1 25527U 98066A   24164.86403071  .00403777  61305-4  11654-2 0  9992
2 25527  85.4959 305.8662 0006440 262.2719  97.7831 15.92979753407245
